SL-14 R/B               
1 16792U 86046B   25343.48126537  .00000916  00000+0  10294-3 0  9996
2 16792  82.4811 165.3916 0023515 162.7487 197.4534 14.85479643113013
SL-14 R/B               
1 16882U 86055B   25343.15317137  .00000864  00000+0  97087-4 0  9996
2 16882  82.5208 211.7428 0017463 272.3667 204.2461 14.85526142105925
AJISAI (EGS)            
1 16908U 86061A   25343.46984800 -.00000088  00000+0  67861-4 0  9999
2 16908  50.0114  10.7719 0011292  57.7143  98.5648 12.44514233456761
COSMOS 1812             
1 17295U 87003A   25343.36320215  .00110817  00000+0  75157-3 0  9996
2 17295  82.4870 295.6692 0007274  91.9685 268.2412 15.74593218130129
SL-14 R/B               
1 17567U 87024B   25343.48003844  .00000852  00000+0  94448-4 0  9992
2 17567  82.5277 177.5167 0017799 195.1865 164.8820 14.86018976 74731
COSMOS 1833             
1 17589U 87027A   25343.46139068  .00000112  00000+0  85500-4 0  9993
2 17589  70.9134 155.6691 0022396 336.3021  23.7066 14.13020250997567
SL-16 R/B               
1 17590U 87027B   25343.48495235 -.00000091  00000+0 -21476-4 0  9998
2 17590  71.0026 106.5762 0007482 262.9748  97.0524 14.17152221  2562
SL-14 R/B               
1 17912U 87038B   25343.49603747  .00000783  00000+0  88109-4 0  9990
2 17912  82.5019  21.7562 0020856 102.0277 258.3278 14.85257173 65841
COSMOS 1844             
1 17973U 87041A   25343.37976970 -.00000112  00000+0 -33020-4 0  9999
2 17973  70.8982 224.6581 0030169 162.4934 197.7235 14.14526374990817
SL-14 R/B               
1 18153U 87055B   25343.35376572  .00000945  00000+0  10634-3 0  9992
2 18153  82.5001  74.1793 0019591 315.2128  44.7506 14.85516324 56527
COSMOS 1867             
1 18187U 87060A   25343.31933281  .00000032  00000+0  49823-4 0  9997
2 18187  65.0096 199.7813 0013640 270.7606  89.1915 14.31485392  7003
SL-14 R/B               
1 18749U 88001B   25343.34312343  .00000935  00000+0  10553-3 0  9999
2 18749  82.5130 280.3419 0018156 172.1985 187.9517 14.85418631 28617
